CCSDS_OMM_VERS = 2.0
CREATION_DATE  = 
ORIGINATOR     = 

OBJECT_NAME    = COSMOS 1933
OBJECT_ID      = 1988-020A
CENTER_NAME    = EARTH
REF_FRAME      = TEME
TIME_SYSTEM    = UTC
MEAN_ELEMENT_THEORY = SGP/SGP4

EPOCH          = 2026-02-10T04:01:35.231232
MEAN_MOTION    = 15.17745136
ECCENTRICITY   = .000311
INCLINATION    = 82.5122
RA_OF_ASC_NODE = 278.1420
ARG_OF_PERICENTER = 314.0105
MEAN_ANOMALY   = 46.0872

EPHEMERIS_TYPE = 0
CLASSIFICATION_TYPE = U
NORAD_CAT_ID   = 18958
ELEMENT_SET_NO = 999
REV_AT_EPOCH   = 4605
BSTAR          = .17093E-3
MEAN_MOTION_DOT = .3479E-4
MEAN_MOTION_DDOT = 0

CCSDS_OMM_VERS = 2.0
CREATION_DATE  = 
ORIGINATOR     = 

OBJECT_NAME    = SL-3 R/B
OBJECT_ID      = 1988-032B
CENTER_NAME    = EARTH
REF_FRAME      = TEME
TIME_SYSTEM    = UTC
MEAN_ELEMENT_THEORY = SGP/SGP4

EPOCH          = 2026-02-10T12:56:38.004864
MEAN_MOTION    = 15.19557339
ECCENTRICITY   = .00252332
INCLINATION    = 97.5152
RA_OF_ASC_NODE = 24.9031
ARG_OF_PERICENTER = 332.8321
MEAN_ANOMALY   = 27.1592

EPHEMERIS_TYPE = 0
CLASSIFICATION_TYPE = U
NORAD_CAT_ID   = 19046
ELEMENT_SET_NO = 999
REV_AT_EPOCH   = 4798
BSTAR          = .30000019E-3
MEAN_MOTION_DOT = .6362E-4
MEAN_MOTION_DDOT = 0

CCSDS_OMM_VERS = 2.0
CREATION_DATE  = 
ORIGINATOR     = 

OBJECT_NAME    = SL-16 R/B
OBJECT_ID      = 1988-039B
CENTER_NAME    = EARTH
REF_FRAME      = TEME
TIME_SYSTEM    = UTC
MEAN_ELEMENT_THEORY = SGP/SGP4

EPOCH          = 2026-02-10T13:41:14.081568
MEAN_MOTION    = 14.19611612
ECCENTRICITY   = .00210857
INCLINATION    = 71.0148
RA_OF_ASC_NODE = 125.8948
ARG_OF_PERICENTER = 15.6545
MEAN_ANOMALY   = 344.5227

EPHEMERIS_TYPE = 0
CLASSIFICATION_TYPE = U
NORAD_CAT_ID   = 19120
ELEMENT_SET_NO = 999
REV_AT_EPOCH   = 95453
BSTAR          = .18613842E-4
MEAN_MOTION_DOT = -.9E-7
MEAN_MOTION_DDOT = 0

CCSDS_OMM_VERS = 2.0
CREATION_DATE  = 
ORIGINATOR     = 

OBJECT_NAME    = COSMOS 1953
OBJECT_ID      = 1988-050A
CENTER_NAME    = EARTH
REF_FRAME      = TEME
TIME_SYSTEM    = UTC
MEAN_ELEMENT_THEORY = SGP/SGP4

EPOCH          = 2026-02-10T10:52:04.821312
MEAN_MOTION    = 15.27974767
ECCENTRICITY   = .00107579
INCLINATION    = 82.5093
RA_OF_ASC_NODE = 185.6221
ARG_OF_PERICENTER = 216.2683
MEAN_ANOMALY   = 143.7828

EPHEMERIS_TYPE = 0
CLASSIFICATION_TYPE = U
NORAD_CAT_ID   = 19210
ELEMENT_SET_NO = 999
REV_AT_EPOCH   = 3362
BSTAR          = .37112984E-3
MEAN_MOTION_DOT = .10178E-3
MEAN_MOTION_DDOT = 0

CCSDS_OMM_VERS = 2.0
CREATION_DATE  = 
ORIGINATOR     = 

OBJECT_NAME    = SL-8 R/B
OBJECT_ID      = 1988-053B
CENTER_NAME    = EARTH
REF_FRAME      = TEME
TIME_SYSTEM    = UTC
MEAN_ELEMENT_THEORY = SGP/SGP4

EPOCH          = 2026-02-10T13:05:49.104672
MEAN_MOTION    = 14.38899327
ECCENTRICITY   = .00204835
INCLINATION    = 74.0482
RA_OF_ASC_NODE = 162.4946
ARG_OF_PERICENTER = 346.7217
MEAN_ANOMALY   = 95.3883

EPHEMERIS_TYPE = 0
CLASSIFICATION_TYPE = U
NORAD_CAT_ID   = 19257
ELEMENT_SET_NO = 999
REV_AT_EPOCH   = 97269
BSTAR          = .96191824E-4
MEAN_MOTION_DOT = .271E-5
MEAN_MOTION_DDOT = 0

CCSDS_OMM_VERS = 2.0
CREATION_DATE  = 
ORIGINATOR     = 

OBJECT_NAME    = COSMOS 1975
OBJECT_ID      = 1988-093A
CENTER_NAME    = EARTH
REF_FRAME      = TEME
TIME_SYSTEM    = UTC
MEAN_ELEMENT_THEORY = SGP/SGP4

EPOCH          = 2026-02-10T08:21:18.663552
MEAN_MOTION    = 15.27588086
ECCENTRICITY   = .00103359
INCLINATION    = 82.5220
RA_OF_ASC_NODE = 145.1137
ARG_OF_PERICENTER = 265.7282
MEAN_ANOMALY   = 94.2776

EPHEMERIS_TYPE = 0
CLASSIFICATION_TYPE = U
NORAD_CAT_ID   = 19573
ELEMENT_SET_NO = 999
REV_AT_EPOCH   = 1523
BSTAR          = .33906027E-3
MEAN_MOTION_DOT = .9191E-4
MEAN_MOTION_DDOT = 0

CCSDS_OMM_VERS = 2.0
CREATION_DATE  = 
ORIGINATOR     = 

OBJECT_NAME    = SL-14 R/B
OBJECT_ID      = 1988-093B
CENTER_NAME    = EARTH
REF_FRAME      = TEME
TIME_SYSTEM    = UTC
MEAN_ELEMENT_THEORY = SGP/SGP4

EPOCH          = 2026-02-10T14:19:57.334368
MEAN_MOTION    = 14.85625420
ECCENTRICITY   = .00220017
INCLINATION    = 82.5279
RA_OF_ASC_NODE = 67.4838
ARG_OF_PERICENTER = 125.3440
MEAN_ANOMALY   = 353.2555

EPHEMERIS_TYPE = 0
CLASSIFICATION_TYPE = U
NORAD_CAT_ID   = 19574
ELEMENT_SET_NO = 999
REV_AT_EPOCH   = 99701
BSTAR          = .50575855E-4
MEAN_MOTION_DOT = .464E-5
MEAN_MOTION_DDOT = 0

CCSDS_OMM_VERS = 2.0
CREATION_DATE  = 
ORIGINATOR     = 

OBJECT_NAME    = SL-16 R/B
OBJECT_ID      = 1988-102B
CENTER_NAME    = EARTH
REF_FRAME      = TEME
TIME_SYSTEM    = UTC
MEAN_ELEMENT_THEORY = SGP/SGP4

EPOCH          = 2026-02-10T13:39:37.542528
MEAN_MOTION    = 14.16148273
ECCENTRICITY   = .00125472
INCLINATION    = 70.9977
RA_OF_ASC_NODE = 208.5568
ARG_OF_PERICENTER = 46.2471
MEAN_ANOMALY   = 313.9689

EPHEMERIS_TYPE = 0
CLASSIFICATION_TYPE = U
NORAD_CAT_ID   = 19650
ELEMENT_SET_NO = 999
REV_AT_EPOCH   = 92305
BSTAR          = .17697476E-3
MEAN_MOTION_DOT = .303E-5
MEAN_MOTION_DDOT = 0

CCSDS_OMM_VERS = 2.0
CREATION_DATE  = 
ORIGINATOR     = 

OBJECT_NAME    = INTERCOSMOS 24
OBJECT_ID      = 1989-080A
CENTER_NAME    = EARTH
REF_FRAME      = TEME
TIME_SYSTEM    = UTC
MEAN_ELEMENT_THEORY = SGP/SGP4

EPOCH          = 2026-02-10T07:41:35.842272
MEAN_MOTION    = 12.59519982
ECCENTRICITY   = .1187951
INCLINATION    = 82.6065
RA_OF_ASC_NODE = 122.2191
ARG_OF_PERICENTER = 356.3814
MEAN_ANOMALY   = 2.9212

EPHEMERIS_TYPE = 0
CLASSIFICATION_TYPE = U
NORAD_CAT_ID   = 20261
ELEMENT_SET_NO = 999
REV_AT_EPOCH   = 66335
BSTAR          = .15955E-3
MEAN_MOTION_DOT = .552E-5
MEAN_MOTION_DDOT = 0

CCSDS_OMM_VERS = 2.0
CREATION_DATE  = 
ORIGINATOR     = 

OBJECT_NAME    = SL-14 R/B
OBJECT_ID      = 1989-080C
CENTER_NAME    = EARTH
REF_FRAME      = TEME
TIME_SYSTEM    = UTC
MEAN_ELEMENT_THEORY = SGP/SGP4

EPOCH          = 2026-02-10T08:23:30.251616
MEAN_MOTION    = 12.50459817
ECCENTRICITY   = .12294817
INCLINATION    = 82.5946
RA_OF_ASC_NODE = 190.7364
ARG_OF_PERICENTER = 247.2661
MEAN_ANOMALY   = 99.4084

EPHEMERIS_TYPE = 0
CLASSIFICATION_TYPE = U
NORAD_CAT_ID   = 20262
ELEMENT_SET_NO = 999
REV_AT_EPOCH   = 65673
BSTAR          = .1449596E-3
MEAN_MOTION_DOT = .479E-5
MEAN_MOTION_DDOT = 0

CCSDS_OMM_VERS = 2.0
CREATION_DATE  = 
ORIGINATOR     = 

OBJECT_NAME    = DELTA 1 R/B
OBJECT_ID      = 1989-089B
CENTER_NAME    = EARTH
REF_FRAME      = TEME
TIME_SYSTEM    = UTC
MEAN_ELEMENT_THEORY = SGP/SGP4

EPOCH          = 2026-02-10T13:57:58.230144
MEAN_MOTION    = 14.50640339
ECCENTRICITY   = .00683474
INCLINATION    = 97.0725
RA_OF_ASC_NODE = 253.3285
ARG_OF_PERICENTER = 207.3108
MEAN_ANOMALY   = 152.4490

EPHEMERIS_TYPE = 0
CLASSIFICATION_TYPE = U
NORAD_CAT_ID   = 20323
ELEMENT_SET_NO = 999
REV_AT_EPOCH   = 89180
BSTAR          = .10836936E-3
MEAN_MOTION_DOT = .403E-5
MEAN_MOTION_DDOT = 0

CCSDS_OMM_VERS = 2.0
CREATION_DATE  = 
ORIGINATOR     = 

OBJECT_NAME    = ARIANE 40 R/B
OBJECT_ID      = 1990-005H
CENTER_NAME    = EARTH
REF_FRAME      = TEME
TIME_SYSTEM    = UTC
MEAN_ELEMENT_THEORY = SGP/SGP4

EPOCH          = 2026-02-10T13:44:54.348864
MEAN_MOTION    = 14.39852124
ECCENTRICITY   = .00089337
INCLINATION    = 98.3145
RA_OF_ASC_NODE = 103.0342
ARG_OF_PERICENTER = 288.0065
MEAN_ANOMALY   = 72.0150

EPHEMERIS_TYPE = 0
CLASSIFICATION_TYPE = U
NORAD_CAT_ID   = 20443
ELEMENT_SET_NO = 999
REV_AT_EPOCH   = 88890
BSTAR          = .10280158E-3
MEAN_MOTION_DOT = .28E-5
MEAN_MOTION_DDOT = 0

