COSMOS 1933             
1 18958U 88020A   26041.16776888  .00003479  00000+0  17093-3 0  9998
2 18958  82.5122 278.1420 0003110 314.0105  46.0872 15.17745136 46058
SL-3 R/B                
1 19046U 88032B   26041.53932876  .00006362  00000+0  30000-3 0  9999
2 19046  97.5152  24.9031 0025233 332.8321  27.1592 15.19557339 47989
SL-16 R/B               
1 19120U 88039B   26041.57030187 -.00000009  00000+0  18614-4 0  9998
2 19120  71.0148 125.8948 0021085  15.6545 344.5227 14.19611612954530
COSMOS 1953             
1 19210U 88050A   26041.45283358  .00010178  00000+0  37113-3 0  9999
2 19210  82.5093 185.6221 0010757 216.2683 143.7828 15.27974767 33627
SL-8 R/B                
1 19257U 88053B   26041.54570723  .00000271  00000+0  96192-4 0  9994
2 19257  74.0482 162.4946 0020483 346.7217  95.3883 14.38899327972693
COSMOS 1975             
1 19573U 88093A   26041.34813268  .00009191  00000+0  33906-3 0  9994
2 19573  82.5220 145.1137 0010335 265.7282  94.2776 15.27588086 15238
SL-14 R/B               
1 19574U 88093B   26041.59719137  .00000464  00000+0  50576-4 0  9999
2 19574  82.5279  67.4838 0022001 125.3440 353.2555 14.85625420997012
SL-16 R/B               
1 19650U 88102B   26041.56918452  .00000303  00000+0  17697-3 0  9991
2 19650  70.9977 208.5568 0012547  46.2471 313.9689 14.16148273923054
INTERCOSMOS 24          
1 20261U 89080A   26041.32055373  .00000552  00000+0  15955-3 0  9996
2 20261  82.6065 122.2191 1187951 356.3814   2.9212 12.59519982663350
SL-14 R/B               
1 20262U 89080C   26041.34965569  .00000479  00000+0  14496-3 0  9993
2 20262  82.5946 190.7364 1229481 247.2661  99.4084 12.50459817656736
DELTA 1 R/B             
1 20323U 89089B   26041.58192396  .00000403  00000+0  10837-3 0  9998
2 20323  97.0725 253.3285 0068347 207.3108 152.4490 14.50640339891805
ARIANE 40 R/B           
1 20443U 90005H   26041.57285126  .00000280  00000+0  10280-3 0  9999
2 20443  98.3145 103.0342 0008933 288.0065  72.0150 14.39852124888907
